#dV2023  2 18 10  0  0.00000000    1682       CTS   FIT  GFZ
## 2249 554400.00000000    30.00000000 59993 0.4166666666667
+    1   L64  0  0  0  0  0  0  0  0  0  0  0  0  0  0  0  0
+          0  0  0  0  0  0  0  0  0  0  0  0  0  0  0  0  0
+          0  0  0  0  0  0  0  0  0  0  0  0  0  0  0  0  0
+          0  0  0  0  0  0  0  0  0  0  0  0  0  0  0  0  0
+          0  0  0  0  0  0  0  0  0  0  0  0  0  0  0  0  0
++         0  0  0  0  0  0  0  0  0  0  0  0  0  0  0  0  0
++         0  0  0  0  0  0  0  0  0  0  0  0  0  0  0  0  0
++         0  0  0  0  0  0  0  0  0  0  0  0  0  0  0  0  0
++         0  0  0  0  0  0  0  0  0  0  0  0  0  0  0  0  0
++         0  0  0  0  0  0  0  0  0  0  0  0  0  0  0  0  0
%c L  cc GPS ccc cccc cccc cccc cccc ccccc ccccc ccccc ccccc
%c cc cc ccc ccc cccc cccc cccc cccc ccccc ccccc ccccc ccccc
%f  0.0000000  0.000000000  0.00000000000  0.000000000000000
%f  0.0000000  0.000000000  0.00000000000  0.000000000000000
%i    0    0    0    0      0      0      0      0         0
%i    0    0    0    0      0      0      0      0         0
/* CCCCCCCCCCCCCCCCCCCCCCCCCCCCCCCCCCCCCCCCCCCCCCCCCCCCCCCCCCCCCCCCCCCCCCCCCCCCC
/* C                             GFZ RSO-ORBIT                                 C
/* C DOI: https://doi.org/10.5880/GFZ_ORBIT/RSO/L64_G_v02                      C
/* C                                                                           C
/* C DORIS        RMS: not applicable                                          C
/* C GNSS-E Code  RMS: not applicable                                          C
/* C GNSS-E Phase RMS: not applicable                                          C
/* C GNSS-G Code  RMS:  47.826 [cm]   Obs.acc.:     14203 Obs.eli.:      1210  C
/* C GNSS-G Phase RMS:   4.171 [mm]   Obs.acc.:     14203 Obs.eli.:      1210  C
/* C SLR          RMS:   1.516 [cm]   Obs.acc.:        26 Obs.eli.:         0  C
/* C                                                                           C
/* CCCCCCCCCCCCCCCCCCCCCCCCCCCCCCCCCCCCCCCCCCCCCCCCCCCCCCCCCCCCCCCCCCCCCCCCCCCCC
*  2023  2 18 20 37 30.00000000
PL64    343.937767   6405.652990   2428.377538   1933.273061
VL64   4694.829254  26962.289706 -71287.103678 999999.999999
*  2023  2 18 20 38  0.00000000
PL64    358.000898   6482.947669   2213.201952   1933.733159
VL64   4677.976968  24562.788723 -72149.941851 999999.999999
*  2023  2 18 20 38 30.00000000
PL64    371.989898   6553.002866   1995.558426   1934.193285
VL64   4645.394661  22136.432257 -72932.244597 999999.999999
*  2023  2 18 20 39  0.00000000
PL64    385.857461   6615.742205   1775.689887   1934.653196
VL64   4597.009165  19686.018769 -73633.148121 999999.999999
*  2023  2 18 20 39 30.00000000
PL64    399.556107   6671.097744   1553.841711   1935.113093
VL64   4532.778622  17214.371746 -74251.881545 999999.999999
*  2023  2 18 20 40  0.00000000
PL64    413.038276   6719.010049   1330.261448   1935.573206
VL64   4452.691887  14724.338822 -74787.767603 999999.999999
*  2023  2 18 20 40 30.00000000
PL64    426.256420   6759.428259   1105.198537   1936.033399
VL64   4356.768055  12218.788713 -75240.224486 999999.999999
*  2023  2 18 20 41  0.00000000
PL64    439.163095   6792.310150    878.904019   1936.493453
VL64   4245.056542   9700.607867 -75608.766992 999999.999999
*  2023  2 18 20 41 30.00000000
PL64    451.711051   6817.622176    651.630240   1936.953314
VL64   4117.637328   7172.696690 -75893.008270 999999.999999
*  2023  2 18 20 42  0.00000000
PL64    463.853321   6835.339509    423.630561   1937.413347
VL64   3974.621198   4637.964596 -76092.660845 999999.999999
*  2023  2 18 20 42 30.00000000
PL64    475.543321   6845.446056    195.159055   1937.873685
VL64   3816.149619   2099.325534 -76207.536157 999999.999999
*  2023  2 18 20 43  0.00000000
PL64    486.734934   6847.934470    -33.529785   1938.333981
VL64   3642.394059   -440.305670 -76237.544096 999999.999999
*  2023  2 18 20 43 30.00000000
PL64    497.382602   6842.806143   -262.181347   1938.793954
VL64   3453.555220  -2978.016741 -76182.692642 999999.999999
*  2023  2 18 20 44  0.00000000
PL64    507.441411   6830.071196   -490.541185   1939.253724
VL64   3249.862682  -5510.901237 -76043.087794 999999.999999
*  2023  2 18 20 44 30.00000000
PL64    516.867181   6809.748459   -718.355321   1939.713503
VL64   3031.574763  -8036.062355 -75818.933537 999999.999999
*  2023  2 18 20 45  0.00000000
PL64    525.616550   6781.865430   -945.370534   1940.173478
VL64   2798.978193 -10550.616711 -75510.531187 999999.999999
*  2023  2 18 20 45 30.00000000
PL64    533.647055   6746.458233  -1171.334654   1940.633450
VL64   2552.387522 -13051.697658 -75118.278704 999999.999999
*  2023  2 18 20 46  0.00000000
PL64    540.917222   6703.571564  -1395.996848   1941.093550
VL64   2292.144521 -15536.458883 -74642.670426 999999.999999
*  2023  2 18 20 46 30.00000000
PL64    547.386638   6653.258622  -1619.107908   1941.553720
VL64   2018.617622 -18002.078712 -74084.296039 999999.999999
*  2023  2 18 20 47  0.00000000
PL64    553.016038   6595.581028  -1840.420538   1942.013769
VL64   1732.201672 -20445.763377 -73443.838859 999999.999999
*  2023  2 18 20 47 30.00000000
PL64    557.767379   6530.608741  -2059.689631   1942.473677
VL64   1433.317784 -22864.750021 -72722.075165 999999.999999
*  2023  2 18 20 48  0.00000000
PL64    561.603922   6458.419955  -2276.672547   1942.933640
VL64   1122.412524 -25256.310670 -71919.872868 999999.999999
*  2023  2 18 20 48 30.00000000
PL64    564.490303   6379.100995  -2491.129385   1943.393768
VL64    799.957068 -27617.754901 -71038.189470 999999.999999
*  2023  2 18 20 49  0.00000000
PL64    566.392609   6292.746194  -2702.823247   1943.854011
VL64    466.446524 -29946.432320 -70078.071404 999999.999999
*  2023  2 18 20 49 30.00000000
PL64    567.278445   6199.457776  -2911.520510   1944.314117
VL64    122.398985 -32239.736475 -69040.652958 999999.999999
*  2023  2 18 20 50  0.00000000
PL64    567.117005   6099.345709  -3116.991081   1944.774116
VL64   -231.645361 -34495.108491 -67927.154040 999999.999999
*  2023  2 18 20 50 30.00000000
PL64    565.879137   5992.527567  -3319.008654   1945.234048
VL64   -595.124950 -36710.039875 -66738.877888 999999.999999
*  2023  2 18 20 51  0.00000000
PL64    563.537402   5879.128368  -3517.350953   1945.693870
VL64   -967.457599 -38882.075006 -65477.208980 999999.999999
*  2023  2 18 20 51 30.00000000
PL64    560.066139   5759.280415  -3711.799976   1946.153667
VL64  -1348.041299 -41008.813544 -64143.611304 999999.999999
*  2023  2 18 20 52  0.00000000
PL64    555.441523   5633.123128  -3902.142231   1946.613618
VL64  -1736.255283 -43087.913299 -62739.626672 999999.999999
*  2023  2 18 20 52 30.00000000
PL64    549.641615   5500.802858  -4088.168964   1947.073680
VL64  -2131.461203 -45117.093226 -61266.872279 999999.999999
*  2023  2 18 20 53  0.00000000
PL64    542.646418   5362.472708  -4269.676383   1947.533862
VL64  -2533.004063 -47094.135706 -59727.037800 999999.999999
*  2023  2 18 20 53 30.00000000
PL64    534.437924   5218.292336  -4446.465868   1947.994052
VL64  -2940.212961 -49016.888192 -58121.882901 999999.999999
*  2023  2 18 20 54  0.00000000
PL64    525.000160   5068.427757  -4618.344185   1948.454199
VL64  -3352.401916 -50883.264897 -56453.235353 999999.999999
*  2023  2 18 20 54 30.00000000
PL64    514.319232   4913.051141  -4785.123680   1948.914282
VL64  -3768.870991 -52691.249062 -54722.989163 999999.999999
*  2023  2 18 20 55  0.00000000
PL64    502.383366   4752.340603  -4946.622477   1949.374529
VL64  -4188.907544 -54438.895361 -52933.102020 999999.999999
*  2023  2 18 20 55 30.00000000
PL64    489.182943   4586.479981  -5102.664668   1949.834388
VL64  -4611.787435 -56124.331624 -51085.592449 999999.999999
*  2023  2 18 20 56  0.00000000
PL64    474.710532   4415.658623  -5253.080485   1950.294642
VL64  -5036.776196 -57745.760251 -49182.537419 999999.999999
*  2023  2 18 20 56 30.00000000
PL64    458.960920   4240.071152  -5397.706478   1950.755025
VL64  -5463.130226 -59301.459852 -47226.070126 999999.999999
*  2023  2 18 20 57  0.00000000
PL64    441.931137   4059.917239  -5536.385679   1951.215294
VL64  -5890.097964 -60789.787208 -45218.377659 999999.999999
*  2023  2 18 20 57 30.00000000
PL64    423.620477   3875.401366  -5668.967755   1951.675463
VL64  -6316.920849 -62209.179502 -43161.697871 999999.999999
*  2023  2 18 20 58  0.00000000
PL64    404.030521   3686.732581  -5795.309162   1952.135954
VL64  -6742.834139 -63558.155273 -41058.315441 999999.999999
*  2023  2 18 20 58 30.00000000
PL64    383.165152   3494.124254  -5915.273273   1952.598314
VL64  -7167.068233 -64835.313892 -38910.559444 999999.999999
*  2023  2 18 20 59  0.00000000
PL64    361.030564   3297.793837  -6028.730516   1953.060855
VL64  -7588.850260 -66039.336499 -36720.802507 999999.999999
*  2023  2 18 20 59 30.00000000
PL64    337.635277   3097.962609  -6135.558499   1953.522685
VL64  -8007.405121 -67168.988691 -34491.458022 999999.999999
*  2023  2 18 21  0  0.00000000
PL64    312.990137   2894.855427  -6235.642125   1953.983975
VL64  -8421.956135 -68223.121476 -32224.975375 999999.999999
*  2023  2 18 21  0 30.00000000
PL64    287.108322   2688.700467  -6328.873694   1954.444993
VL64  -8831.725872 -69200.670036 -29923.836831 999999.999999
*  2023  2 18 21  1  0.00000000
PL64    260.005340   2479.728975  -6415.153003   1954.906383
VL64  -9235.937291 -70100.653086 -27590.556742 999999.999999
*  2023  2 18 21  1 30.00000000
PL64    231.699032   2268.175013  -6494.387438   1955.367327
VL64  -9633.815033 -70922.174105 -25227.681131 999999.999999
*  2023  2 18 21  2  0.00000000
PL64    202.209556   2054.275204  -6566.492069   1955.827971
VL64 -10024.587043 -71664.424214 -22837.785749 999999.999999
*  2023  2 18 21  2 30.00000000
PL64    171.559383   1838.268461  -6631.389733   1956.288377
VL64 -10407.486077 -72326.684200 -20423.471296 999999.999999
EOF
